0 CBERS 1 DEB
1 32468U 99057RC  13281.71778480  .00006622  00000-0  17633-2 0  5893
2 32468 098.2283 246.4685 0008908 343.7577 016.3271 14.48787361319500
0 CBERS 1 DEB
1 32468U 99057RC  13283.09905104  .00006575  00000-0  17500-2 0  5903
2 32468 098.2265 247.8112 0009348 339.2499 020.8305 14.48805644319707
0 CBERS 1 DEB
1 32468U 99057RC  13284.13498750  .00006765  00000-0  17996-2 0  5914
2 32468 098.2289 248.8216 0008973 334.7835 025.3371 14.48822731319851
0 CBERS 1 DEB
1 32468U 99057RC  13284.68747350  .00006965  00000-0  18523-2 0  5927
2 32468 098.2310 249.3631 0007370 333.9003 026.2158 14.48832784319932
0 CBERS 1 DEB
1 32468U 99057RC  13285.72338495  .00008017  00000-0  21289-2 0  5933
2 32468 098.2298 250.3731 0008806 335.8713 024.2391 14.48856434320087
0 CBERS 1 DEB
1 32468U 99057RC  13287.10457117  .00008343  00000-0  22135-2 0  5944
2 32468 098.2281 251.7199 0009131 330.9921 029.0848 14.48882637320287
0 CBERS 1 DEB
1 32468U 99057RC  13288.69291313  .00008991  00000-0  23833-2 0  5959
2 32468 098.2316 253.2705 0006817 324.1317 035.9898 14.48915962320513
0 CBERS 1 DEB
1 32468U 99057RC  13290.14309379  .00009372  00000-0  24818-2 0  5963
2 32468 098.2311 254.6858 0007257 317.6473 042.4273 14.48946707320725
0 CBERS 1 DEB
1 32468U 99057RC  13291.10986756  .00009817  00000-0  25977-2 0  5972
2 32468 098.2319 255.6289 0006912 312.1156 047.9568 14.48968914320863
0 CBERS 1 DEB
1 32468U 99057RC  13292.14567988  .00010210  00000-0  27000-2 0  5988
2 32468 098.2339 256.6417 0006242 306.7786 053.2895 14.48993013321012
0 CBERS 1 DEB
1 32468U 99057RC  13294.14821445  .00010605  00000-0  28011-2 0  5993
2 32468 098.2337 258.5946 0006973 303.8988 056.1851 14.49038233321302
0 CBERS 1 DEB
1 32468U 99057RC  13295.66732985  .00010666  00000-0  28152-2 0  6007
2 32468 098.2355 260.0811 0007083 303.1724 056.8672 14.49070819321523
